PERSEUS-M1              
1 40039U 14033AF  26174.79328844  .00001719  00000+0  16004-3 0  9993
2 40039  97.9645 119.0334 0009861 276.3983  83.6114 14.95650723651626
POLYITAN-1              
1 40042U 14033AJ  26176.01366825  .00021694  00000+0  67060-3 0  9997
2 40042  98.0944 203.0157 0008869 119.8414 240.3708 15.33506522654790
TIGRISAT                
1 40043U 14033AK  26175.93116506  .00001731  00000+0  20392-3 0  9994
2 40043  97.7840 325.7656 0050234  50.4069 310.1565 14.85187769646777
AEROCUBE 6A             
1 40045U 14033AM  26175.17018366  .00003537  00000+0  29900-3 0  9997
2 40045  97.7240 342.0460 0038348 353.9157   6.1594 14.98159364647666
AEROCUBE 6B             
1 40046U 14033AN  26175.96641065  .00004825  00000+0  39086-3 0  9990
2 40046  97.7235 342.6415 0037827 342.1616  17.8276 14.99630893647925
CANX-4                  
1 40055U 14034C   26176.12282281  .00000891  00000+0  12146-3 0  9998
2 40055  98.3114  51.7268 0012553 351.9882   8.1127 14.81277779645707
CANX-5                  
1 40056U 14034D   26175.91851637  .00000827  00000+0  11329-3 0  9993
2 40056  98.3116  51.5591 0012570 352.8632   7.2398 14.81294261636489
UKUBE-1                 
1 40074U 14037F   26175.96904052  .00009327  00000+0  52263-3 0  9997
2 40074  98.4237 180.0587 0002964 120.9120 239.2400 15.13660442649736
BRITE-PL2 (HEWELIUSZ)   
1 40119U 14049B   26175.20196365  .00001831  00000+0  17421-3 0  9996
2 40119  97.9104 287.2561 0015433  87.1932 273.1054 14.94617811642493
AEROCUBE 5C             
1 40965U 15058B   26175.88183242  .00001771  00000+0  16498-3 0  9996
2 40965  64.7655 238.6522 0131121  60.2761 301.1324 14.91481537366808
AEROCUBE 7              
1 40966U 15058C   26176.19046656  .00003198  00000+0  26103-3 0  9998
2 40966  64.7609 219.7470 0120867  58.5251 302.7609 14.95766278367153
FOX-1A (AO-85)          
1 40967U 15058D   26174.92582050  .00001640  00000+0  15604-3 0  9995
2 40967  64.7750 258.0417 0130850  53.9672 307.3482 14.90994015114570
SINOD-D 1               
1 40968U 15058E   26175.90004929  .00002934  00000+0  24025-3 0  9993
2 40968  64.7741 234.7583 0119574  50.0269 311.1272 14.95944936117818
SNAP-3 ALICE            
1 40970U 15058G   26176.11817919  .00167907  00000+0  18484-2 0  9994
2 40970  64.7507  76.4812 0025595   7.4918 352.6606 15.61960050118128
LMRST-SAT               
1 40971U 15058H   26174.61448282  .00001395  00000+0  13592-3 0  9995
2 40971  64.7747 255.3597 0132430  56.1235 305.2393 14.90610757114516
SNAP-3 EDDIE            
1 40972U 15058J   26176.03782693  .00148087  00000+0  15598-2 0  9998
2 40972  64.7417  67.4251 0025740  10.8094 349.3601 15.63150797120258
PROPCUBE 3              
1 40973U 15058K   26174.56735649  .00001847  00000+0  16195-3 0  9991
2 40973  64.7675 232.6013 0124393  57.3922 303.9127 14.94283146115753
BISONSAT                
1 40974U 15058L   26176.21165973  .00017063  00000+0  81399-3 0  9998
2 40974  64.7574 147.6966 0080014  43.9982 316.7473 15.16374425116834
SNAP-3 JIMI             
1 40975U 15058M   26176.17731231  .00005818  00000+0  39979-3 0  9992
2 40975  64.7633 194.4905 0106625  52.1353 308.9351 15.02363176115423
PROPCUBE 1 (FLORA)      
1 40976U 15058N   26174.97822709  .00001571  00000+0  15689-3 0  9994
2 40976  64.7740 274.1884 0131113  58.2861 303.0953 14.89246131117270
SINOD-D 3               
1 40977U 15058P   26174.93474712  .00002223  00000+0  19505-3 0  9994
2 40977  64.7721 254.7482 0119649  55.4465 305.7871 14.94048063115767
HORYU-4                 
1 41340U 16012D   26175.92351499  .00887715  38476-3  12685-2 0  9996
2 41340  30.9835  21.9003 0008452 319.1648  40.8382 16.04340254572051
RAVAN                   
1 41849U 16067B   26175.18670486  .00048165  00000+0  70917-3 0  9997
2 41849  97.9882  65.5694 0003309   7.4434 352.6867 15.55287518528787
CELTEE 1                
1 41850U 16067C   26176.10828862  .00006128  00000+0  29013-3 0  9999
2 41850  98.0670  43.2156 0001397 129.0761 231.0596 15.19752018527084
OPTICUBE 04             
1 41851U 16067D   26176.09915796  .00001980  00000+0  12700-3 0  9997
2 41851  98.0695  28.7953 0017028  90.9437 269.3742 15.09690402526363
AEROCUBE 8D             
1 41852U 16067E   26176.16355307  .00008508  00000+0  34919-3 0  9991
2 41852  98.0679  46.9416 0004949 104.2415 255.9371 15.24498380527284
AEROCUBE 8C             
1 41853U 16067F   26176.12160597  .00008822  00000+0  35919-3 0  9993
2 41853  98.0551  44.1138 0006155  47.3359 312.8394 15.24747896527276
CORVUS BC2              
1 42846U 17042X   26175.90061493  .00003067  00000+0  21210-3 0  9995
2 42846  97.4074 336.9510 0014782  86.7538 273.5381 15.06342159488222
CORVUS BC1              
1 42847U 17042Y   26175.96078810  .00002634  00000+0  18198-3 0  9993
2 42847  97.4100 337.8281 0013308  65.7846 294.4771 15.06505398488265
MAKERSAT 0              
1 43016U 17073D   26174.64546570  .00012795  00000+0  34716-3 0  9996
2 43016  97.4621  57.2152 0104856 249.5542 109.4417 15.32275781467455
